[{"OBJECT_NAME":"CROCUBE","OBJECT_ID":"2024-247T","EPOCH":"2026-04-25T12:28:35.459040","MEAN_MOTION":15.4462609,"ECCENTRICITY":0.0005281,"INCLINATION":44.9719,"RA_OF_ASC_NODE":195.5164,"ARG_OF_PERICENTER":349.2987,"MEAN_ANOMALY":10.7789,"EPHEMERIS_TYPE":0,"CLASSIFICATION_TYPE":"U","NORAD_CAT_ID":62394,"ELEMENT_SET_NO":999,"REV_AT_EPOCH":7519,"BSTAR":0.00068363,"MEAN_MOTION_DOT":0.00032331,"MEAN_MOTION_DDOT":0},{"OBJECT_NAME":"FORESAIL-1 PRIME","OBJECT_ID":"2025-276DS","EPOCH":"2026-04-25T17:44:00.025152","MEAN_MOTION":15.18206177,"ECCENTRICITY":8.72e-5,"INCLINATION":97.4217,"RA_OF_ASC_NODE":189.9846,"ARG_OF_PERICENTER":313.8984,"MEAN_ANOMALY":46.2178,"EPHEMERIS_TYPE":0,"CLASSIFICATION_TYPE":"U","NORAD_CAT_ID":66778,"ELEMENT_SET_NO":999,"REV_AT_EPOCH":2244,"BSTAR":0.00025138,"MEAN_MOTION_DOT":5.075e-5,"MEAN_MOTION_DDOT":0},{"OBJECT_NAME":"KNACKSAT-2","OBJECT_ID":"1998-067XZ","EPOCH":"2026-04-25T13:11:25.731168","MEAN_MOTION":15.55573732,"ECCENTRICITY":0.001231,"INCLINATION":51.6296,"RA_OF_ASC_NODE":198.3227,"ARG_OF_PERICENTER":2.8014,"MEAN_ANOMALY":357.3044,"EPHEMERIS_TYPE":0,"CLASSIFICATION_TYPE":"U","NORAD_CAT_ID":67683,"ELEMENT_SET_NO":999,"REV_AT_EPOCH":1207,"BSTAR":0.00055505,"MEAN_MOTION_DOT":0.0003856,"MEAN_MOTION_DDOT":0}]
