CROCUBE                 
1 62394U 24247T   26115.51985485  .00032331  00000+0  68363-3 0  9993
2 62394  44.9719 195.5164 0005281 349.2987  10.7789 15.44626090 75190
FORESAIL-1 PRIME        
1 66778U 25276DS  26115.73888918  .00005075  00000+0  25138-3 0  9991
2 66778  97.4217 189.9846 0000872 313.8984  46.2178 15.18206177 22442
KNACKSAT-2              
1 67683U 98067XZ  26115.54960337  .00038560  00000+0  55505-3 0  9996
2 67683  51.6296 198.3227 0012310   2.8014 357.3044 15.55573732 12074
